HAWK-7B                 
1 56193U 23054R   26201.84668979  .00003448  00000+0  13019-3 0  9991
2 56193  97.2678  86.6037 0000678   2.8812 357.2431 15.27670128182169
HAWK-7C                 
1 56200U 23054Y   26201.84656117  .00003697  00000+0  13939-3 0  9998
2 56200  97.2656  87.3617 0000376 308.1724  51.9482 15.27669625182169
HAWK-8A                 
1 59443U 24066B   26201.89527763  .00000540  00000+0  62254-4 0  9992
2 59443  45.5986 102.3395 0003434 239.3572 120.6971 14.99293439124895
HAWK-8B                 
1 59445U 24066D   26201.42932019  .00000422  00000+0  52773-4 0  9991
2 59445  45.6228 106.7357 0004524 244.0445 115.9971 14.99295071124819
HAWK-9A                 
1 59446U 24066E   26201.45240509  .00000692  00000+0  74613-4 0  9997
2 59446  45.6101 105.2843 0003187 228.2274 131.8335 14.99224736124824
HAWK-9C                 
1 59448U 24066G   26201.71921509  .00000684  00000+0  74017-4 0  9993
2 59448  45.6072 103.0026 0003113 215.3761 144.6914 14.99223837124869
HAWK-8C                 
1 59449U 24066H   26201.16225613  .00000593  00000+0  66488-4 0  9998
2 59449  45.6078 107.1340 0003041 248.0406 112.0153 14.99297533124777
HAWK-9B                 
1 59450U 24066J   26201.71926353  .00000748  00000+0  79154-4 0  9996
2 59450  45.6127 104.8424 0003394 211.8002 148.2675 14.99220674124864
HAWK-10A                
1 60540U 24149CA  26201.80087000  .00000532  00000+0  51722-4 0  9999
2 60540  97.6877 277.1344 0002555 340.0441  20.0680 14.96597016105013
HAWK-10B                
1 60545U 24149CF  26201.80073633  .00000593  00000+0  57115-4 0  9990
2 60545  97.6796 276.4553 0004796 354.5996   5.5173 14.96596289105012
HAWK-10C                
1 60575U 24149DM  26201.80108074  .00000673  00000+0  64139-4 0  9994
2 60575  97.6715 275.7600 0002118 323.3596  36.7481 14.96595524105016
HAWK-11B                
1 62379U 24247C   26201.45655025  .00003828  00000+0  13661-3 0  9999
2 62379  45.0159 107.3291 0002350  60.3231 299.7888 15.30713497 88109
HAWK-11C                
1 62381U 24247E   26201.45610889  .00003856  00000+0  13754-3 0  9995
2 62381  45.0044 106.6567 0003191  43.3109 316.8026 15.30709577 88101
HAWK-11A                
1 62382U 24247F   26200.93412156  .00003924  00000+0  13981-3 0  9993
2 62382  44.9940 108.8436 0002713  38.9090 321.1989 15.30702060 88020
HAWK-12C                
1 64621U 25138A   26201.91702639  .00002688  00000+0  13356-3 0  9990
2 64621  97.4359 203.7939 0014799  32.7505 327.4644 15.18433170 58986
HAWK-12B                
1 64622U 25138B   26201.91720160  .00002699  00000+0  13416-3 0  9999
2 64622  97.4482 204.4967 0013644  28.8345 331.3640 15.18432545 58984
