{"fetched_at":"2026-07-21T07:06:53.417Z","source":"https://celestrak.org/NORAD/elements/gp.php?NAME=HAWK&FORMAT=JSON","constellation":"hawkeye-360","records":[{"OBJECT_NAME":"HAWK-7B","OBJECT_ID":"2023-054R","EPOCH":"2026-07-20T20:19:13.997856","CLASSIFICATION_TYPE":"U","MEAN_MOTION":15.27670128,"ECCENTRICITY":0.00006785,"INCLINATION":97.2678,"RA_OF_ASC_NODE":86.6037,"ARG_OF_PERICENTER":2.8812,"MEAN_ANOMALY":357.2431,"EPHEMERIS_TYPE":0,"NORAD_CAT_ID":56193,"ELEMENT_SET_NO":999,"REV_AT_EPOCH":18216,"BSTAR":0.0001301893,"MEAN_MOTION_DOT":0.00003448,"MEAN_MOTION_DDOT":0},{"OBJECT_NAME":"HAWK-7C","OBJECT_ID":"2023-054Y","EPOCH":"2026-07-20T20:19:02.885088","CLASSIFICATION_TYPE":"U","MEAN_MOTION":15.27669625,"ECCENTRICITY":0.00003766,"INCLINATION":97.2656,"RA_OF_ASC_NODE":87.3617,"ARG_OF_PERICENTER":308.1724,"MEAN_ANOMALY":51.9482,"EPHEMERIS_TYPE":0,"NORAD_CAT_ID":56200,"ELEMENT_SET_NO":999,"REV_AT_EPOCH":18216,"BSTAR":0.00013939122,"MEAN_MOTION_DOT":0.00003697,"MEAN_MOTION_DDOT":0},{"OBJECT_NAME":"HAWK-8A","OBJECT_ID":"2024-066B","EPOCH":"2026-07-20T21:29:11.987232","CLASSIFICATION_TYPE":"U","MEAN_MOTION":14.99293439,"ECCENTRICITY":0.00034346,"INCLINATION":45.5986,"RA_OF_ASC_NODE":102.3395,"ARG_OF_PERICENTER":239.3572,"MEAN_ANOMALY":120.6971,"EPHEMERIS_TYPE":0,"NORAD_CAT_ID":59443,"ELEMENT_SET_NO":999,"REV_AT_EPOCH":12489,"BSTAR":0.000062253545,"MEAN_MOTION_DOT":0.0000054,"MEAN_MOTION_DDOT":0},{"OBJECT_NAME":"HAWK-8B","OBJECT_ID":"2024-066D","EPOCH":"2026-07-20T10:18:13.264416","CLASSIFICATION_TYPE":"U","MEAN_MOTION":14.99295071,"ECCENTRICITY":0.00045246,"INCLINATION":45.6228,"RA_OF_ASC_NODE":106.7357,"ARG_OF_PERICENTER":244.0445,"MEAN_ANOMALY":115.9971,"EPHEMERIS_TYPE":0,"NORAD_CAT_ID":59445,"ELEMENT_SET_NO":999,"REV_AT_EPOCH":12481,"BSTAR":0.000052773195,"MEAN_MOTION_DOT":0.00000422,"MEAN_MOTION_DDOT":0},{"OBJECT_NAME":"HAWK-9A","OBJECT_ID":"2024-066E","EPOCH":"2026-07-20T10:51:27.799776","CLASSIFICATION_TYPE":"U","MEAN_MOTION":14.99224736,"ECCENTRICITY":0.00031878,"INCLINATION":45.6101,"RA_OF_ASC_NODE":105.2843,"ARG_OF_PERICENTER":228.2274,"MEAN_ANOMALY":131.8335,"EPHEMERIS_TYPE":0,"NORAD_CAT_ID":59446,"ELEMENT_SET_NO":999,"REV_AT_EPOCH":12482,"BSTAR":0.000074613487,"MEAN_MOTION_DOT":0.00000692,"MEAN_MOTION_DDOT":0},{"OBJECT_NAME":"HAWK-9C","OBJECT_ID":"2024-066G","EPOCH":"2026-07-20T17:15:40.183776","CLASSIFICATION_TYPE":"U","MEAN_MOTION":14.99223837,"ECCENTRICITY":0.00031139,"INCLINATION":45.6072,"RA_OF_ASC_NODE":103.0026,"ARG_OF_PERICENTER":215.3761,"MEAN_ANOMALY":144.6914,"EPHEMERIS_TYPE":0,"NORAD_CAT_ID":59448,"ELEMENT_SET_NO":999,"REV_AT_EPOCH":12486,"BSTAR":0.000074016726,"MEAN_MOTION_DOT":0.00000684,"MEAN_MOTION_DDOT":0},{"OBJECT_NAME":"HAWK-8C","OBJECT_ID":"2024-066H","EPOCH":"2026-07-20T03:53:38.929632","CLASSIFICATION_TYPE":"U","MEAN_MOTION":14.99297533,"ECCENTRICITY":0.00030411,"INCLINATION":45.6078,"RA_OF_ASC_NODE":107.134,"ARG_OF_PERICENTER":248.0406,"MEAN_ANOMALY":112.0153,"EPHEMERIS_TYPE":0,"NORAD_CAT_ID":59449,"ELEMENT_SET_NO":999,"REV_AT_EPOCH":12477,"BSTAR":0.000066488098,"MEAN_MOTION_DOT":0.00000593,"MEAN_MOTION_DDOT":0},{"OBJECT_NAME":"HAWK-9B","OBJECT_ID":"2024-066J","EPOCH":"2026-07-20T17:15:44.368992","CLASSIFICATION_TYPE":"U","MEAN_MOTION":14.99220674,"ECCENTRICITY":0.00033949,"INCLINATION":45.6127,"RA_OF_ASC_NODE":104.8424,"ARG_OF_PERICENTER":211.8002,"MEAN_ANOMALY":148.2675,"EPHEMERIS_TYPE":0,"NORAD_CAT_ID":59450,"ELEMENT_SET_NO":999,"REV_AT_EPOCH":12486,"BSTAR":0.000079153991,"MEAN_MOTION_DOT":0.00000748,"MEAN_MOTION_DDOT":0},{"OBJECT_NAME":"HAWK-10A","OBJECT_ID":"2024-149CA","EPOCH":"2026-07-20T19:13:15.168000","CLASSIFICATION_TYPE":"U","MEAN_MOTION":14.96597016,"ECCENTRICITY":0.00025557,"INCLINATION":97.6877,"RA_OF_ASC_NODE":277.1344,"ARG_OF_PERICENTER":340.0441,"MEAN_ANOMALY":20.068,"EPHEMERIS_TYPE":0,"NORAD_CAT_ID":60540,"ELEMENT_SET_NO":999,"REV_AT_EPOCH":10501,"BSTAR":0.000051721651,"MEAN_MOTION_DOT":0.00000532,"MEAN_MOTION_DDOT":0},{"OBJECT_NAME":"HAWK-10B","OBJECT_ID":"2024-149CF","EPOCH":"2026-07-20T19:13:03.618912","CLASSIFICATION_TYPE":"U","MEAN_MOTION":14.96596289,"ECCENTRICITY":0.0004796,"INCLINATION":97.6796,"RA_OF_ASC_NODE":276.4553,"ARG_OF_PERICENTER":354.5996,"MEAN_ANOMALY":5.5173,"EPHEMERIS_TYPE":0,"NORAD_CAT_ID":60545,"ELEMENT_SET_NO":999,"REV_AT_EPOCH":10501,"BSTAR":0.000057115026,"MEAN_MOTION_DOT":0.00000593,"MEAN_MOTION_DDOT":0},{"OBJECT_NAME":"HAWK-10C","OBJECT_ID":"2024-149DM","EPOCH":"2026-07-20T19:13:33.375936","CLASSIFICATION_TYPE":"U","MEAN_MOTION":14.96595524,"ECCENTRICITY":0.0002118,"INCLINATION":97.6715,"RA_OF_ASC_NODE":275.76,"ARG_OF_PERICENTER":323.3596,"MEAN_ANOMALY":36.7481,"EPHEMERIS_TYPE":0,"NORAD_CAT_ID":60575,"ELEMENT_SET_NO":999,"REV_AT_EPOCH":10501,"BSTAR":0.000064138595,"MEAN_MOTION_DOT":0.00000673,"MEAN_MOTION_DDOT":0},{"OBJECT_NAME":"HAWK-11B","OBJECT_ID":"2024-247C","EPOCH":"2026-07-20T10:57:25.941600","CLASSIFICATION_TYPE":"U","MEAN_MOTION":15.30713497,"ECCENTRICITY":0.00023505,"INCLINATION":45.0159,"RA_OF_ASC_NODE":107.3291,"ARG_OF_PERICENTER":60.3231,"MEAN_ANOMALY":299.7888,"EPHEMERIS_TYPE":0,"NORAD_CAT_ID":62379,"ELEMENT_SET_NO":999,"REV_AT_EPOCH":8810,"BSTAR":0.00013660739,"MEAN_MOTION_DOT":0.00003828,"MEAN_MOTION_DDOT":0},{"OBJECT_NAME":"HAWK-11C","OBJECT_ID":"2024-247E","EPOCH":"2026-07-20T10:56:47.808096","CLASSIFICATION_TYPE":"U","MEAN_MOTION":15.30709577,"ECCENTRICITY":0.00031914,"INCLINATION":45.0044,"RA_OF_ASC_NODE":106.6567,"ARG_OF_PERICENTER":43.3109,"MEAN_ANOMALY":316.8026,"EPHEMERIS_TYPE":0,"NORAD_CAT_ID":62381,"ELEMENT_SET_NO":999,"REV_AT_EPOCH":8810,"BSTAR":0.0001375411,"MEAN_MOTION_DOT":0.00003856,"MEAN_MOTION_DDOT":0},{"OBJECT_NAME":"HAWK-11A","OBJECT_ID":"2024-247F","EPOCH":"2026-07-19T22:25:08.102784","CLASSIFICATION_TYPE":"U","MEAN_MOTION":15.3070206,"ECCENTRICITY":0.00027134,"INCLINATION":44.994,"RA_OF_ASC_NODE":108.8436,"ARG_OF_PERICENTER":38.909,"MEAN_ANOMALY":321.1989,"EPHEMERIS_TYPE":0,"NORAD_CAT_ID":62382,"ELEMENT_SET_NO":999,"REV_AT_EPOCH":8802,"BSTAR":0.00013980967,"MEAN_MOTION_DOT":0.00003924,"MEAN_MOTION_DDOT":0},{"OBJECT_NAME":"HAWK-12C","OBJECT_ID":"2025-138A","EPOCH":"2026-07-20T22:00:31.080096","CLASSIFICATION_TYPE":"U","MEAN_MOTION":15.1843317,"ECCENTRICITY":0.00147991,"INCLINATION":97.4359,"RA_OF_ASC_NODE":203.7939,"ARG_OF_PERICENTER":32.7505,"MEAN_ANOMALY":327.4644,"EPHEMERIS_TYPE":0,"NORAD_CAT_ID":64621,"ELEMENT_SET_NO":999,"REV_AT_EPOCH":5898,"BSTAR":0.00013356299,"MEAN_MOTION_DOT":0.00002688,"MEAN_MOTION_DDOT":0},{"OBJECT_NAME":"HAWK-12B","OBJECT_ID":"2025-138B","EPOCH":"2026-07-20T22:00:46.218240","CLASSIFICATION_TYPE":"U","MEAN_MOTION":15.18432545,"ECCENTRICITY":0.00136445,"INCLINATION":97.4482,"RA_OF_ASC_NODE":204.4967,"ARG_OF_PERICENTER":28.8345,"MEAN_ANOMALY":331.364,"EPHEMERIS_TYPE":0,"NORAD_CAT_ID":64622,"ELEMENT_SET_NO":999,"REV_AT_EPOCH":5898,"BSTAR":0.00013416435,"MEAN_MOTION_DOT":0.00002699,"MEAN_MOTION_DDOT":0}]}
